{
  "type": "FeatureCollection",
  "features": [
    {
      "type": "Feature",
      "properties": {
        "norad_id": 30817,
        "name": "FENGYUN 1C DEB",
        "group": "fengyun-1c-debris",
        "lat": -8.729727491675796,
        "lon": 165.9206830929763,
        "alt_km": 857.4115090516825,
        "timestamp": "2025-12-23T11:34:48.442161+00:00",
        "meta_object_name": "FENGYUN 1C DEB",
        "meta_object_id": "1999-025AVB",
        "meta_epoch": "2025-12-22T22:40:42.247488",
        "meta_mean_motion": 14.00726548,
        "meta_eccentricity": 0.00576023,
        "meta_inclination": 98.7854,
        "meta_ra_of_asc_node": 346.7645,
        "meta_arg_of_pericenter": 215.7974,
        "meta_mean_anomaly": 143.9325,
        "meta_ephemeris_type": 0,
        "meta_classification_type": "U",
        "meta_norad_cat_id": 30817,
        "meta_element_set_no": 999,
        "meta_rev_at_epoch": 96052,
        "meta_bstar": 0.0001523439,
        "meta_mean_motion_dot": 1.88e-06,
        "meta_mean_motion_ddot": 0,
        "tle_line1": "1 30817U 99025AVB 25356.94493342  .00000188  00000+0  15234-3 0  9997",
        "tle_line2": "2 30817  98.7854 346.7645 0057602 215.7974 143.9325 14.00726548960528"
      },
      "geometry": {
        "type": "Point",
        "coordinates": [
          165.9206830929763,
          -8.729727491675796
        ]
      }
    },
    {
      "type": "Feature",
      "properties": {
        "norad_id": 30820,
        "name": "FENGYUN 1C DEB",
        "group": "fengyun-1c-debris",
        "lat": 45.92313738410965,
        "lon": -77.32657155128221,
        "alt_km": 781.9330191163681,
        "timestamp": "2025-12-23T11:34:48.442170+00:00",
        "meta_object_name": "FENGYUN 1C DEB",
        "meta_object_id": "1999-025AVE",
        "meta_epoch": "2025-12-20T01:01:00.867360",
        "meta_mean_motion": 14.21453719,
        "meta_eccentricity": 0.00521121,
        "meta_inclination": 98.6769,
        "meta_ra_of_asc_node": 90.2187,
        "meta_arg_of_pericenter": 166.8384,
        "meta_mean_anomaly": 12.569,
        "meta_ephemeris_type": 0,
        "meta_classification_type": "U",
        "meta_norad_cat_id": 30820,
        "meta_element_set_no": 999,
        "meta_rev_at_epoch": 96527,
        "meta_bstar": 0.001235858,
        "meta_mean_motion_dot": 2.697e-05,
        "meta_mean_motion_ddot": 0,
        "tle_line1": "1 30820U 99025AVE 25354.04237115  .00002697  00000+0  12359-2 0  9995",
        "tle_line2": "2 30820  98.6769  90.2187 0052112 166.8384  12.5690 14.21453719965273"
      },
      "geometry": {
        "type": "Point",
        "coordinates": [
          -77.32657155128221,
          45.92313738410965
        ]
      }
    },
    {
      "type": "Feature",
      "properties": {
        "norad_id": 30821,
        "name": "FENGYUN 1C DEB",
        "group": "fengyun-1c-debris",
        "lat": -15.87934632843871,
        "lon": -41.701146450504936,
        "alt_km": 674.1767242402211,
        "timestamp": "2025-12-23T11:34:48.442179+00:00",
        "meta_object_name": "FENGYUN 1C DEB",
        "meta_object_id": "1999-025AVF",
        "meta_epoch": "2025-12-22T15:05:10.178592",
        "meta_mean_motion": 14.49720433,
        "meta_eccentricity": 0.0086666,
        "meta_inclination": 99.1046,
        "meta_ra_of_asc_node": 139.9918,
        "meta_arg_of_pericenter": 176.3992,
        "meta_mean_anomaly": 245.1641,
        "meta_ephemeris_type": 0,
        "meta_classification_type": "U",
        "meta_norad_cat_id": 30821,
        "meta_element_set_no": 999,
        "meta_rev_at_epoch": 98932,
        "meta_bstar": 0.00077555632,
        "meta_mean_motion_dot": 3.078e-05,
        "meta_mean_motion_ddot": 0,
        "tle_line1": "1 30821U 99025AVF 25356.62859003  .00003078  00000+0  77556-3 0  9993",
        "tle_line2": "2 30821  99.1046 139.9918 0086666 176.3992 245.1641 14.49720433989325"
      },
      "geometry": {
        "type": "Point",
        "coordinates": [
          -41.701146450504936,
          -15.87934632843871
        ]
      }
    },
    {
      "type": "Feature",
      "properties": {
        "norad_id": 30822,
        "name": "FENGYUN 1C DEB",
        "group": "fengyun-1c-debris",
        "lat": 67.42223428624634,
        "lon": 3.558926441004532,
        "alt_km": 900.9076251369652,
        "timestamp": "2025-12-23T11:34:48.442188+00:00",
        "meta_object_name": "FENGYUN 1C DEB",
        "meta_object_id": "1999-025AVG",
        "meta_epoch": "2025-12-21T14:02:44.488032",
        "meta_mean_motion": 14.11353011,
        "meta_eccentricity": 0.0073272,
        "meta_inclination": 98.7342,
        "meta_ra_of_asc_node": 23.4111,
        "meta_arg_of_pericenter": 259.9283,
        "meta_mean_anomaly": 254.7343,
        "meta_ephemeris_type": 0,
        "meta_classification_type": "U",
        "meta_norad_cat_id": 30822,
        "meta_element_set_no": 999,
        "meta_rev_at_epoch": 96826,
        "meta_bstar": 0.00027186,
        "meta_mean_motion_dot": 4.61e-06,
        "meta_mean_motion_ddot": 0,
        "tle_line1": "1 30822U 99025AVG 25355.58523713  .00000461  00000+0  27186-3 0  9991",
        "tle_line2": "2 30822  98.7342  23.4111 0073272 259.9283 254.7343 14.11353011968260"
      },
      "geometry": {
        "type": "Point",
        "coordinates": [
          3.558926441004532,
          67.42223428624634
        ]
      }
    },
    {
      "type": "Feature",
      "properties": {
        "norad_id": 30823,
        "name": "FENGYUN 1C DEB",
        "group": "fengyun-1c-debris",
        "lat": -6.551395882517951,
        "lon": -42.924793763950575,
        "alt_km": 952.9851579534916,
        "timestamp": "2025-12-23T11:34:48.442197+00:00",
        "meta_object_name": "FENGYUN 1C DEB",
        "meta_object_id": "1999-025AVH",
        "meta_epoch": "2025-12-19T21:48:58.565088",
        "meta_mean_motion": 14.02564136,
        "meta_eccentricity": 0.01342337,
        "meta_inclination": 98.7634,
        "meta_ra_of_asc_node": 134.6515,
        "meta_arg_of_pericenter": 64.6202,
        "meta_mean_anomaly": 87.319,
        "meta_ephemeris_type": 0,
        "meta_classification_type": "U",
        "meta_norad_cat_id": 30823,
        "meta_element_set_no": 999,
        "meta_rev_at_epoch": 96134,
        "meta_bstar": 0.00016735994,
        "meta_mean_motion_dot": 2.38e-06,
        "meta_mean_motion_ddot": 0,
        "tle_line1": "1 30823U 99025AVH 25353.90901117  .00000238  00000+0  16736-3 0  9995",
        "tle_line2": "2 30823  98.7634 134.6515 0134233  64.6202  87.3190 14.02564136961349"
      },
      "geometry": {
        "type": "Point",
        "coordinates": [
          -42.924793763950575,
          -6.551395882517951
        ]
      }
    },
    {
      "type": "Feature",
      "properties": {
        "norad_id": 30826,
        "name": "FENGYUN 1C DEB",
        "group": "fengyun-1c-debris",
        "lat": 31.876836091171086,
        "lon": 19.22294450857278,
        "alt_km": 721.1879018172976,
        "timestamp": "2025-12-23T11:34:48.442206+00:00",
        "meta_object_name": "FENGYUN 1C DEB",
        "meta_object_id": "1999-025AVL",
        "meta_epoch": "2025-12-20T19:47:26.677248",
        "meta_mean_motion": 14.82301373,
        "meta_eccentricity": 0.01448173,
        "meta_inclination": 98.8662,
        "meta_ra_of_asc_node": 190.7086,
        "meta_arg_of_pericenter": 331.2092,
        "meta_mean_anomaly": 41.6036,
        "meta_ephemeris_type": 0,
        "meta_classification_type": "U",
        "meta_norad_cat_id": 30826,
        "meta_element_set_no": 999,
        "meta_rev_at_epoch": 406,
        "meta_bstar": 0.00035606275,
        "meta_mean_motion_dot": 3.34e-05,
        "meta_mean_motion_ddot": 0,
        "tle_line1": "1 30826U 99025AVL 25354.82461432  .00003340  00000+0  35606-3 0  9995",
        "tle_line2": "2 30826  98.8662 190.7086 0144817 331.2092  41.6036 14.82301373  4068"
      },
      "geometry": {
        "type": "Point",
        "coordinates": [
          19.22294450857278,
          31.876836091171086
        ]
      }
    },
    {
      "type": "Feature",
      "properties": {
        "norad_id": 30827,
        "name": "FENGYUN 1C DEB",
        "group": "fengyun-1c-debris",
        "lat": 24.3269031439215,
        "lon": -20.7058681565128,
        "alt_km": 781.1331972481184,
        "timestamp": "2025-12-23T11:34:48.442215+00:00",
        "meta_object_name": "FENGYUN 1C DEB",
        "meta_object_id": "1999-025AVM",
        "meta_epoch": "2025-12-22T05:24:17.025120",
        "meta_mean_motion": 14.37918372,
        "meta_eccentricity": 0.00439891,
        "meta_inclination": 99.0037,
        "meta_ra_of_asc_node": 342.0879,
        "meta_arg_of_pericenter": 150.3136,
        "meta_mean_anomaly": 210.056,
        "meta_ephemeris_type": 0,
        "meta_classification_type": "U",
        "meta_norad_cat_id": 30827,
        "meta_element_set_no": 999,
        "meta_rev_at_epoch": 96685,
        "meta_bstar": 0.0026816406,
        "meta_mean_motion_dot": 8.15e-05,
        "meta_mean_motion_ddot": 0,
        "tle_line1": "1 30827U 99025AVM 25356.22519705  .00008150  00000+0  26816-2 0  9995",
        "tle_line2": "2 30827  99.0037 342.0879 0043989 150.3136 210.0560 14.37918372966858"
      },
      "geometry": {
        "type": "Point",
        "coordinates": [
          -20.7058681565128,
          24.3269031439215
        ]
      }
    }
  ]
}